start=new Date('2022-04-17T00:00:00.000Z').valueOf();
sats=[{"COUNTRY_CODE":"US","MEAN_MOTION":"15.06385908","MEAN_MOTION_DOT":"0.00000331","NORAD_CAT_ID":"45562","EPHEMERIS_TYPE":"0","DECAY_DATE":null,"OBJECT_ID":"2020-025AH","RCS_SIZE":"LARGE","ARG_OF_PERICENTER":"76.1487","OBJECT_NAME":"STARLINK-1354","MEAN_MOTION_DDOT":"0.0000000000000","CENTER_NAME":"EARTH","REF_FRAME":"TEME","ELEMENT_SET_NO":"999","LAUNCH_DATE":"2020-04-22","MEAN_ANOMALY":"283.9646","TLE_LINE1":"1 45562U 20025AH  22106.91948708  .00000331  00000-0  41139-4 0  9997","SITE":"AFETR","BSTAR":"0.00004113900000","APOAPSIS":"548.154","PERIOD":"95.593","FILE":"3404767","ECCENTRICITY":"0.00012960","TIME_SYSTEM":"UTC","PERIAPSIS":"546.359","TLE_LINE2":"2 45562  53.0555 353.6746 0001296  76.1487 283.9646 15.06385908110928","OBJECT_TYPE":"PAYLOAD","INCLINATION":"53.0555","CLASSIFICATION_TYPE":"U","RA_OF_ASC_NODE":"353.6746","GP_ID":"201418644","MEAN_ELEMENT_THEORY":"SGP4","SEMIMAJOR_AXIS":"6925.392","REV_AT_EPOCH":"11092","EPOCH":"2022-04-16T22:04:03.683712"},{"TLE_LINE1":"1 45563U 20025AJ  22106.93423717 -.00000340  00000-0 -39131-5 0  9990","LAUNCH_DATE":"2020-04-22","ELEMENT_SET_NO":"999","MEAN_ANOMALY":"279.5792","REF_FRAME":"TEME","MEAN_MOTION_DDOT":"0.0000000000000","CENTER_NAME":"EARTH","ARG_OF_PERICENTER":"80.5356","OBJECT_NAME":"STARLINK-1355","RCS_SIZE":"LARGE","OBJECT_ID":"2020-025AJ","DECAY_DATE":null,"EPHEMERIS_TYPE":"0","NORAD_CAT_ID":"45563","MEAN_MOTION_DOT":"-0.00000340","MEAN_MOTION":"15.06393465","COUNTRY_CODE":"US","REV_AT_EPOCH":"11092","EPOCH":"2022-04-16T22:25:18.091488","SEMIMAJOR_AXIS":"6925.369","MEAN_ELEMENT_THEORY":"SGP4","GP_ID":"201417896","INCLINATION":"53.0543","CLASSIFICATION_TYPE":"U","RA_OF_ASC_NODE":"353.6289","TLE_LINE2":"2 45563  53.0543 353.6289 0001411  80.5356 279.5792 15.06393465110921","OBJECT_TYPE":"PAYLOAD","TIME_SYSTEM":"UTC","PERIAPSIS":"546.256","ECCENTRICITY":"0.00014110","FILE":"3404767","BSTAR":"-0.00000391310000","APOAPSIS":"548.211","PERIOD":"95.593","SITE":"AFETR"},{"GP_ID":"201417646","RA_OF_ASC_NODE":"353.6278","INCLINATION":"53.0555","CLASSIFICATION_TYPE":"U","EPOCH":"2022-04-16T22:19:59.369664","REV_AT_EPOCH":"11092","SEMIMAJOR_AXIS":"6925.465","MEAN_ELEMENT_THEORY":"SGP4","FILE":"3404767","APOAPSIS":"548.400","PERIOD":"95.595","BSTAR":"-0.00078425000000","SITE":"AFETR","OBJECT_TYPE":"PAYLOAD","TLE_LINE2":"2 45564  53.0555 353.6278 0001545  76.4469 283.6692 15.06362074110927","TIME_SYSTEM":"UTC","PERIAPSIS":"546.260","ECCENTRICITY":"0.00015450","REF_FRAME":"TEME","CENTER_NAME":"EARTH","MEAN_MOTION_DDOT":"0.0000000000000","OBJECT_NAME":"STARLINK-1356","ARG_OF_PERICENTER":"76.4469","RCS_SIZE":"LARGE","TLE_LINE1":"1 45564U 20025AK  22106.93054826 -.00011932  00000-0 -78425-3 0  9998","MEAN_ANOMALY":"283.6692","LAUNCH_DATE":"2020-04-22","ELEMENT_SET_NO":"999","NORAD_CAT_ID":"45564","MEAN_MOTION_DOT":"-0.00011932","MEAN_MOTION":"15.06362074","COUNTRY_CODE":"US","OBJECT_ID":"2020-025AK","DECAY_DATE":null,"EPHEMERIS_TYPE":"0"},{"OBJECT_ID":"2020-025AL","DECAY_DATE":null,"EPHEMERIS_TYPE":"0","NORAD_CAT_ID":"45565","MEAN_MOTION_DOT":"-0.00011629","COUNTRY_CODE":"US","MEAN_MOTION":"15.06375222","TLE_LINE1":"1 45565U 20025AL  22106.92316334 -.00011629  00000-0 -76359-3 0  9990","ELEMENT_SET_NO":"999","LAUNCH_DATE":"2020-04-22","MEAN_ANOMALY":"280.2108","REF_FRAME":"TEME","MEAN_MOTION_DDOT":"0.0000000000000","CENTER_NAME":"EARTH","ARG_OF_PERICENTER":"79.9010","OBJECT_NAME":"STARLINK-1357","RCS_SIZE":"LARGE","TLE_LINE2":"2 45565  53.0555 353.6656 0001147  79.9010 280.2108 15.06375222110920","OBJECT_TYPE":"PAYLOAD","PERIAPSIS":"546.495","TIME_SYSTEM":"UTC","ECCENTRICITY":"0.00011470","FILE":"3404767","BSTAR":"-0.00076359000000","PERIOD":"95.594","APOAPSIS":"548.084","SITE":"AFETR","REV_AT_EPOCH":"11092","EPOCH":"2022-04-16T22:09:21.312576","SEMIMAJOR_AXIS":"6925.424","MEAN_ELEMENT_THEORY":"SGP4","GP_ID":"201418898","RA_OF_ASC_NODE":"353.6656","INCLINATION":"53.0555","CLASSIFICATION_TYPE":"U"},{"MEAN_ELEMENT_THEORY":"SGP4","SEMIMAJOR_AXIS":"6925.428","EPOCH":"2022-04-16T22:30:36.440064","REV_AT_EPOCH":"11092","CLASSIFICATION_TYPE":"U","RA_OF_ASC_NODE":"353.6078","INCLINATION":"53.0547","GP_ID":"201419145","ECCENTRICITY":"0.00016040","TIME_SYSTEM":"UTC","PERIAPSIS":"546.182","OBJECT_TYPE":"PAYLOAD","TLE_LINE2":"2 45566  53.0547 353.6078 0001604  43.4257 316.6858 15.06374121110920","SITE":"AFETR","APOAPSIS":"548.404","PERIOD":"95.594","BSTAR":"-0.00068696000000","FILE":"3404767","MEAN_ANOMALY":"316.6858","LAUNCH_DATE":"2020-04-22","ELEMENT_SET_NO":"999","TLE_LINE1":"1 45566U 20025AM  22106.93792176 -.00010492  00000-0 -68696-3 0  9996","RCS_SIZE":"LARGE","OBJECT_NAME":"STARLINK-1358","ARG_OF_PERICENTER":"43.4257","CENTER_NAME":"EARTH","MEAN_MOTION_DDOT":"0.0000000000000","REF_FRAME":"TEME","EPHEMERIS_TYPE":"0","DECAY_DATE":null,"OBJECT_ID":"2020-025AM","MEAN_MOTION":"15.06374121","COUNTRY_CODE":"US","MEAN_MOTION_DOT":"-0.00010492","NORAD_CAT_ID":"45566"},{"ELEMENT_SET_NO":"999","LAUNCH_DATE":"2020-04-22","MEAN_ANOMALY":"279.2750","TLE_LINE1":"1 45567U 20025AN  22106.94896982 -.00000017  00000-0  17727-4 0  9999","ARG_OF_PERICENTER":"80.8406","OBJECT_NAME":"STARLINK-1361","RCS_SIZE":"LARGE","REF_FRAME":"TEME","MEAN_MOTION_DDOT":"0.0000000000000","CENTER_NAME":"EARTH","EPHEMERIS_TYPE":"0","OBJECT_ID":"2020-025AN","DECAY_DATE":null,"COUNTRY_CODE":"US","MEAN_MOTION":"15.06397348","NORAD_CAT_ID":"45567","MEAN_MOTION_DOT":"-0.00000017","MEAN_ELEMENT_THEORY":"SGP4","EPOCH":"2022-04-16T22:46:30.992448","REV_AT_EPOCH":"11093","SEMIMAJOR_AXIS":"6925.357","GP_ID":"201417396","RA_OF_ASC_NODE":"353.5407","CLASSIFICATION_TYPE":"U","INCLINATION":"53.0551","ECCENTRICITY":"0.00014710","TLE_LINE2":"2 45567  53.0551 353.5407 0001471  80.8406 279.2750 15.06397348110936","OBJECT_TYPE":"PAYLOAD","TIME_SYSTEM":"UTC","PERIAPSIS":"546.203","BSTAR":"0.00001772700000","APOAPSIS":"548.240","PERIOD":"95.592","SITE":"AFETR","FILE":"3404767"},{"CLASSIFICATION_TYPE":"U","RA_OF_ASC_NODE":"353.5911","INCLINATION":"53.0547","GP_ID":"201418147","SEMIMAJOR_AXIS":"6925.393","REV_AT_EPOCH":"11092","EPOCH":"2022-04-16T22:34:32.376864","MEAN_ELEMENT_THEORY":"SGP4","FILE":"3404767","SITE":"AFETR","APOAPSIS":"548.476","PERIOD":"95.593","BSTAR":"-0.00062100000000","PERIAPSIS":"546.040","TIME_SYSTEM":"UTC","OBJECT_TYPE":"PAYLOAD","TLE_LINE2":"2 45568  53.0547 353.5911 0001759  78.6573 281.4613 15.06385576110923","ECCENTRICITY":"0.00017590","CENTER_NAME":"EARTH","MEAN_MOTION_DDOT":"0.0000000000000","REF_FRAME":"TEME","RCS_SIZE":"LARGE","OBJECT_NAME":"STARLINK-1363","ARG_OF_PERICENTER":"78.6573","TLE_LINE1":"1 45568U 20025AP  22106.94065251 -.00009516  00000-0 -62100-3 0  9995","MEAN_ANOMALY":"281.4613","ELEMENT_SET_NO":"999","LAUNCH_DATE":"2020-04-22","MEAN_MOTION_DOT":"-0.00009516","NORAD_CAT_ID":"45568","COUNTRY_CODE":"US","MEAN_MOTION":"15.06385576","DECAY_DATE":null,"OBJECT_ID":"2020-025AP","EPHEMERIS_TYPE":"0"},{"NORAD_CAT_ID":"45569","MEAN_MOTION_DOT":"-0.00017063","COUNTRY_CODE":"US","MEAN_MOTION":"15.06360606","OBJECT_ID":"2020-025AQ","DECAY_DATE":null,"EPHEMERIS_TYPE":"0","REF_FRAME":"TEME","CENTER_NAME":"EARTH","MEAN_MOTION_DDOT":"0.0000000000000","OBJECT_NAME":"STARLINK-1366","ARG_OF_PERICENTER":"60.8280","RCS_SIZE":"LARGE","TLE_LINE1":"1 45569U 20025AQ  22106.95265530 -.00017063  00000-0 -11305-2 0  9995","MEAN_ANOMALY":"299.2881","ELEMENT_SET_NO":"999","LAUNCH_DATE":"2020-04-22","FILE":"3404767","PERIOD":"95.595","APOAPSIS":"548.523","BSTAR":"-0.00113050000000","SITE":"AFETR","OBJECT_TYPE":"PAYLOAD","TLE_LINE2":"2 45569  53.0543 353.5343 0001717  60.8280 299.2881 15.06360606110922","TIME_SYSTEM":"UTC","PERIAPSIS":"546.145","ECCENTRICITY":"0.00017170","GP_ID":"201418398","INCLINATION":"53.0543","RA_OF_ASC_NODE":"353.5343","CLASSIFICATION_TYPE":"U","EPOCH":"2022-04-16T22:51:49.417920","REV_AT_EPOCH":"11092","SEMIMAJOR_AXIS":"6925.469","MEAN_ELEMENT_THEORY":"SGP4"},{"ECCENTRICITY":"0.00014050","TLE_LINE2":"2 45570  53.0562 353.5618 0001405  66.1391 293.9745 15.06393165110922","OBJECT_TYPE":"PAYLOAD","PERIAPSIS":"546.261","TIME_SYSTEM":"UTC","BSTAR":"-0.00004409000000","APOAPSIS":"548.208","PERIOD":"95.593","SITE":"AFETR","FILE":"3404767","MEAN_ELEMENT_THEORY":"SGP4","EPOCH":"2022-04-16T22:41:13.596000","REV_AT_EPOCH":"11092","SEMIMAJOR_AXIS":"6925.370","GP_ID":"201418645","CLASSIFICATION_TYPE":"U","RA_OF_ASC_NODE":"353.5618","INCLINATION":"53.0562","EPHEMERIS_TYPE":"0","OBJECT_ID":"2020-025AR","DECAY_DATE":null,"MEAN_MOTION":"15.06393165","COUNTRY_CODE":"US","NORAD_CAT_ID":"45570","MEAN_MOTION_DOT":"-0.00000938","LAUNCH_DATE":"2020-04-22","ELEMENT_SET_NO":"999","MEAN_ANOMALY":"293.9745","TLE_LINE1":"1 45570U 20025AR  22106.94529625 -.00000938  00000-0 -44090-4 0  9996","ARG_OF_PERICENTER":"66.1391","OBJECT_NAME":"STARLINK-1376","RCS_SIZE":"LARGE","REF_FRAME":"TEME","MEAN_MOTION_DDOT":"0.0000000000000","CENTER_NAME":"EARTH"},{"ECCENTRICITY":"0.00013960","PERIAPSIS":"546.261","TIME_SYSTEM":"UTC","TLE_LINE2":"2 45571  53.0542 343.8066 0001396  73.8568 286.2574 15.06395267111077","OBJECT_TYPE":"PAYLOAD","SITE":"AFETR","BSTAR":"0.00002644000000","PERIOD":"95.592","APOAPSIS":"548.195","FILE":"3404767","MEAN_ELEMENT_THEORY":"SGP4","SEMIMAJOR_AXIS":"6925.363","EPOCH":"2022-04-16T21:28:13.776960","REV_AT_EPOCH":"11107","INCLINATION":"53.0542","RA_OF_ASC_NODE":"343.8066","CLASSIFICATION_TYPE":"U","GP_ID":"201417897","EPHEMERIS_TYPE":"0","DECAY_DATE":null,"OBJECT_ID":"2020-025AS","COUNTRY_CODE":"US","MEAN_MOTION":"15.06395267","MEAN_MOTION_DOT":"0.00000112","NORAD_CAT_ID":"45571","ELEMENT_SET_NO":"999","LAUNCH_DATE":"2020-04-22","MEAN_ANOMALY":"286.2574","TLE_LINE1":"1 45571U 20025AS  22106.89460390  .00000112  00000-0  26440-4 0  9995","RCS_SIZE":"LARGE","ARG_OF_PERICENTER":"73.8568","OBJECT_NAME":"STARLINK-1261","MEAN_MOTION_DDOT":"0.0000000000000","CENTER_NAME":"EARTH","REF_FRAME":"TEME"}];
